[
    {
        "Altitude(m)": 703251.1376626042,
        "Argument of Periapsis(deg)": 0.0,
        "Eccentricity": 0.0,
        "Inclination(deg)": 45.0,
        "Latitude(deg)": 22.545795747507203,
        "Longitude(deg)": -145.58085211448605,
        "Mean Anomaly(deg)": 32.72730000000001,
        "RAAN(deg)": 290.0,
        "Satellite Name": "Constellation 1 1278",
        "Satellite Number": 1278,
        "Semi-Major Axis(m)": 7083131.272910544,
        "Time(s)": 0
    },
    {
        "Altitude(m)": 703255.2654061633,
        "Argument of Periapsis(deg)": 5.994800624540561e-05,
        "Eccentricity": 0.0,
        "Inclination(deg)": 45.0,
        "Latitude(deg)": 22.585106849425724,
        "Longitude(deg)": -145.5347324291135,
        "Mean Anomaly(deg)": 32.7880011402499,
        "RAAN(deg)": 289.9999434108345,
        "Satellite Name": "Constellation 1 1278",
        "Satellite Number": 1278,
        "Semi-Major Axis(m)": 7083131.272910544,
        "Time(s)": 1
    },
    {
        "Altitude(m)": 703259.4049203437,
        "Argument of Periapsis(deg)": 0.00011989601249081122,
        "Eccentricity": 0.0,
        "Inclination(deg)": 45.0,
        "Latitude(deg)": 22.624402063352555,
        "Longitude(deg)": -145.48858423886628,
        "Mean Anomaly(deg)": 32.848702280499836,
        "RAAN(deg)": 289.9998868216689,
        "Satellite Name": "Constellation 1 1278",
        "Satellite Number": 1278,
        "Semi-Major Axis(m)": 7083131.272910544,
        "Time(s)": 2
    },
    {
        "Altitude(m)": 703263.5561704604,
        "Argument of Periapsis(deg)": 0.00017984401873621686,
        "Eccentricity": 0.0,
        "Inclination(deg)": 45.0,
        "Latitude(deg)": 22.663681349883284,
        "Longitude(deg)": -145.44240748395913,
        "Mean Anomaly(deg)": 32.90940342074972,
        "RAAN(deg)": 289.9998302325033,
        "Satellite Name": "Constellation 1 1278",
        "Satellite Number": 1278,
        "Semi-Major Axis(m)": 7083131.272910544,
        "Time(s)": 3
    },
    {
        "Altitude(m)": 703267.7191217915,
        "Argument of Periapsis(deg)": 0.00023979202498162244,
        "Eccentricity": 0.0,
        "Inclination(deg)": 45.0,
        "Latitude(deg)": 22.70294466955723,
        "Longitude(deg)": -145.39620210458682,
        "Mean Anomaly(deg)": 32.97010456099961,
        "RAAN(deg)": 289.99977364333773,
        "Satellite Name": "Constellation 1 1278",
        "Satellite Number": 1278,
        "Semi-Major Axis(m)": 7083131.272910544,
        "Time(s)": 4
    },
    {
        "Altitude(m)": 703271.8937395755,
        "Argument of Periapsis(deg)": 0.00029974003122702807,
        "Eccentricity": 0.0,
        "Inclination(deg)": 45.0,
        "Latitude(deg)": 22.74219198285729,
        "Longitude(deg)": -145.34996804092458,
        "Mean Anomaly(deg)": 33.03080570124949,
        "RAAN(deg)": 289.99971705417215,
        "Satellite Name": "Constellation 1 1278",
        "Satellite Number": 1278,
        "Semi-Major Axis(m)": 7083131.272910544,
        "Time(s)": 5
    },
    {
        "Altitude(m)": 703276.0799890005,
        "Argument of Periapsis(deg)": 0.00035968803747243373,
        "Eccentricity": 0.0,
        "Inclination(deg)": 45.0,
        "Latitude(deg)": 22.78142325020993,
        "Longitude(deg)": -145.303705233128,
        "Mean Anomaly(deg)": 33.09150684149943,
        "RAAN(deg)": 289.9996604650066,
        "Satellite Name": "Constellation 1 1278",
        "Satellite Number": 1278,
        "Semi-Major Axis(m)": 7083131.272910544,
        "Time(s)": 6
    },
    {
        "Altitude(m)": 703280.277835222,
        "Argument of Periapsis(deg)": 0.00041963604371783933,
        "Eccentricity": 0.0,
        "Inclination(deg)": 45.0,
        "Latitude(deg)": 22.82063843198521,
        "Longitude(deg)": -145.25741378943044,
        "Mean Anomaly(deg)": 33.152207981749314,
        "RAAN(deg)": 289.99960387584105,
        "Satellite Name": "Constellation 1 1278",
        "Satellite Number": 1278,
        "Semi-Major Axis(m)": 7083131.272910544,
        "Time(s)": 7
    },
    {
        "Altitude(m)": 703284.4872433504,
        "Argument of Periapsis(deg)": 0.0004795840499632449,
        "Eccentricity": 0.0,
        "Inclination(deg)": 45.0,
        "Latitude(deg)": 22.859837488495675,
        "Longitude(deg)": -145.21109331375504,
        "Mean Anomaly(deg)": 33.2129091219992,
        "RAAN(deg)": 289.99954728667547,
        "Satellite Name": "Constellation 1 1278",
        "Satellite Number": 1278,
        "Semi-Major Axis(m)": 7083131.272910544,
        "Time(s)": 8
    },
    {
        "Altitude(m)": 703288.7081784607,
        "Argument of Periapsis(deg)": 0.0005395320562086505,
        "Eccentricity": 0.0,
        "Inclination(deg)": 45.0,
        "Latitude(deg)": 22.899020379997825,
        "Longitude(deg)": -145.16474391429702,
        "Mean Anomaly(deg)": 33.27361026224904,
        "RAAN(deg)": 289.9994906975099,
        "Satellite Name": "Constellation 1 1278",
        "Satellite Number": 1278,
        "Semi-Major Axis(m)": 7083131.272910544,
        "Time(s)": 9
    },
    {
        "Altitude(m)": 703292.9406055795,
        "Argument of Periapsis(deg)": 0.0005994800624540561,
        "Eccentricity": 0.0,
        "Inclination(deg)": 45.0,
        "Latitude(deg)": 22.938187066691057,
        "Longitude(deg)": -145.1183655311357,
        "Mean Anomaly(deg)": 33.33431140249903,
        "RAAN(deg)": 289.9994341083443,
        "Satellite Name": "Constellation 1 1278",
        "Satellite Number": 1278,
        "Semi-Major Axis(m)": 7083131.272910544,
        "Time(s)": 10
    },
    {
        "Altitude(m)": 703297.1844896924,
        "Argument of Periapsis(deg)": 0.0006594280686994618,
        "Eccentricity": 0.0,
        "Inclination(deg)": 45.0,
        "Latitude(deg)": 22.977337508717472,
        "Longitude(deg)": -145.07195810433203,
        "Mean Anomaly(deg)": 33.39501254274886,
        "RAAN(deg)": 289.9993775191788,
        "Satellite Name": "Constellation 1 1278",
        "Satellite Number": 1278,
        "Semi-Major Axis(m)": 7083131.272910544,
        "Time(s)": 11
    },
    {
        "Altitude(m)": 703301.4397957589,
        "Argument of Periapsis(deg)": 0.0007193760749448675,
        "Eccentricity": 0.0,
        "Inclination(deg)": 45.0,
        "Latitude(deg)": 23.01647166616226,
        "Longitude(deg)": -145.0255215739284,
        "Mean Anomaly(deg)": 33.45571368299875,
        "RAAN(deg)": 289.9993209300132,
        "Satellite Name": "Constellation 1 1278",
        "Satellite Number": 1278,
        "Semi-Major Axis(m)": 7083131.272910544,
        "Time(s)": 12
    },
    {
        "Altitude(m)": 703305.7064886788,
        "Argument of Periapsis(deg)": 0.000779324081190273,
        "Eccentricity": 0.0,
        "Inclination(deg)": 45.0,
        "Latitude(deg)": 23.055589499053127,
        "Longitude(deg)": -144.9790558799489,
        "Mean Anomaly(deg)": 33.51641482324869,
        "RAAN(deg)": 289.9992643408477,
        "Satellite Name": "Constellation 1 1278",
        "Satellite Number": 1278,
        "Semi-Major Axis(m)": 7083131.272910544,
        "Time(s)": 13
    },
    {
        "Altitude(m)": 703309.9845333282,
        "Argument of Periapsis(deg)": 0.0008392720874356787,
        "Eccentricity": 0.0,
        "Inclination(deg)": 45.0,
        "Latitude(deg)": 23.094690967360478,
        "Longitude(deg)": -144.9325609623999,
        "Mean Anomaly(deg)": 33.57711596349858,
        "RAAN(deg)": 289.99920775168204,
        "Satellite Name": "Constellation 1 1278",
        "Satellite Number": 1278,
        "Semi-Major Axis(m)": 7083131.272910544,
        "Time(s)": 14
    },
    {
        "Altitude(m)": 703314.2738945279,
        "Argument of Periapsis(deg)": 0.0008992200936810842,
        "Eccentricity": 0.0,
        "Inclination(deg)": 45.0,
        "Latitude(deg)": 23.13377603099749,
        "Longitude(deg)": -144.8860369293665,
        "Mean Anomaly(deg)": 33.63781710374846,
        "RAAN(deg)": 289.99915116251645,
        "Satellite Name": "Constellation 1 1278",
        "Satellite Number": 1278,
        "Semi-Major Axis(m)": 7083131.272910544,
        "Time(s)": 15
    },
    {
        "Altitude(m)": 703318.5745370804,
        "Argument of Periapsis(deg)": 0.0009591680999264898,
        "Eccentricity": 0.0,
        "Inclination(deg)": 45.0,
        "Latitude(deg)": 23.172844649818863,
        "Longitude(deg)": -144.83948338462557,
        "Mean Anomaly(deg)": 33.69851824399835,
        "RAAN(deg)": 289.99909457335093,
        "Satellite Name": "Constellation 1 1278",
        "Satellite Number": 1278,
        "Semi-Major Axis(m)": 7083131.272910544,
        "Time(s)": 16
    },
    {
        "Altitude(m)": 703322.8864257233,
        "Argument of Periapsis(deg)": 0.0010191161061718953,
        "Eccentricity": 0.0,
        "Inclination(deg)": 45.0,
        "Latitude(deg)": 23.21189678362236,
        "Longitude(deg)": -144.79290043622734,
        "Mean Anomaly(deg)": 33.75921938424829,
        "RAAN(deg)": 289.99903798418535,
        "Satellite Name": "Constellation 1 1278",
        "Satellite Number": 1278,
        "Semi-Major Axis(m)": 7083131.272910544,
        "Time(s)": 17
    },
    {
        "Altitude(m)": 703327.2095251734,
        "Argument of Periapsis(deg)": 0.001079064112417301,
        "Eccentricity": 0.0,
        "Inclination(deg)": 45.0,
        "Latitude(deg)": 23.25093239214771,
        "Longitude(deg)": -144.74628802410783,
        "Mean Anomaly(deg)": 33.81992052449817,
        "RAAN(deg)": 289.9989813950198,
        "Satellite Name": "Constellation 1 1278",
        "Satellite Number": 1278,
        "Semi-Major Axis(m)": 7083131.272910544,
        "Time(s)": 18
    }
]